{
  "type": "FeatureCollection",
  "features": [
    {
      "type": "Feature",
      "properties": {
        "norad_id": 30066,
        "name": "FENGYUN 1C DEB",
        "group": "fengyun-1c-debris",
        "lat": 77.8731600897294,
        "lon": -162.95550125752095,
        "alt_km": 905.1856828953405,
        "timestamp": "2025-12-07T11:27:50.275801+00:00",
        "meta_object_name": "FENGYUN 1C DEB",
        "meta_object_id": "1999-025PT",
        "meta_epoch": "2025-12-06T23:26:25.787904",
        "meta_mean_motion": 14.19102373,
        "meta_eccentricity": 0.01167277,
        "meta_inclination": 98.6338,
        "meta_ra_of_asc_node": 331.5568,
        "meta_arg_of_pericenter": 278.6763,
        "meta_mean_anomaly": 141.9453,
        "meta_ephemeris_type": 0,
        "meta_classification_type": "U",
        "meta_norad_cat_id": 30066,
        "meta_element_set_no": 999,
        "meta_rev_at_epoch": 97755,
        "meta_bstar": 0.00029023005,
        "meta_mean_motion_dot": 6.05e-06,
        "meta_mean_motion_ddot": 0,
        "tle_line1": "1 30066U 99025PT  25340.97668736  .00000605  00000+0  29023-3 0  9995",
        "tle_line2": "2 30066  98.6338 331.5568 0116727 278.6763 141.9453 14.19102373977559"
      },
      "geometry": {
        "type": "Point",
        "coordinates": [
          -162.95550125752095,
          77.8731600897294
        ]
      }
    },
    {
      "type": "Feature",
      "properties": {
        "norad_id": 30067,
        "name": "FENGYUN 1C DEB",
        "group": "fengyun-1c-debris",
        "lat": -79.86640478313126,
        "lon": -72.90981582219146,
        "alt_km": 804.480890432541,
        "timestamp": "2025-12-07T11:27:50.275812+00:00",
        "meta_object_name": "FENGYUN 1C DEB",
        "meta_object_id": "1999-025PU",
        "meta_epoch": "2025-12-06T22:37:52.291776",
        "meta_mean_motion": 14.43659357,
        "meta_eccentricity": 0.01521965,
        "meta_inclination": 98.7658,
        "meta_ra_of_asc_node": 226.8517,
        "meta_arg_of_pericenter": 35.3639,
        "meta_mean_anomaly": 343.9541,
        "meta_ephemeris_type": 0,
        "meta_classification_type": "U",
        "meta_norad_cat_id": 30067,
        "meta_element_set_no": 999,
        "meta_rev_at_epoch": 99115,
        "meta_bstar": 0.00071440544,
        "meta_mean_motion_dot": 2.739e-05,
        "meta_mean_motion_ddot": 0,
        "tle_line1": "1 30067U 99025PU  25340.94296634  .00002739  00000+0  71441-3 0  9998",
        "tle_line2": "2 30067  98.7658 226.8517 0152196  35.3639 343.9541 14.43659357991156"
      },
      "geometry": {
        "type": "Point",
        "coordinates": [
          -72.90981582219146,
          -79.86640478313126
        ]
      }
    },
    {
      "type": "Feature",
      "properties": {
        "norad_id": 30068,
        "name": "FENGYUN 1C DEB",
        "group": "fengyun-1c-debris",
        "lat": 35.3317413383028,
        "lon": -36.83934704496205,
        "alt_km": 732.6201502826516,
        "timestamp": "2025-12-07T11:27:50.275822+00:00",
        "meta_object_name": "FENGYUN 1C DEB",
        "meta_object_id": "1999-025PV",
        "meta_epoch": "2025-12-06T23:23:48.855264",
        "meta_mean_motion": 14.12039025,
        "meta_eccentricity": 0.01903183,
        "meta_inclination": 98.7361,
        "meta_ra_of_asc_node": 328.9281,
        "meta_arg_of_pericenter": 5.2433,
        "meta_mean_anomaly": 355.0674,
        "meta_ephemeris_type": 0,
        "meta_classification_type": "U",
        "meta_norad_cat_id": 30068,
        "meta_element_set_no": 999,
        "meta_rev_at_epoch": 97262,
        "meta_bstar": 0.00036865704,
        "meta_mean_motion_dot": 7.58e-06,
        "meta_mean_motion_ddot": 0,
        "tle_line1": "1 30068U 99025PV  25340.97487101  .00000758  00000+0  36866-3 0  9994",
        "tle_line2": "2 30068  98.7361 328.9281 0190318   5.2433 355.0674 14.12039025972628"
      },
      "geometry": {
        "type": "Point",
        "coordinates": [
          -36.83934704496205,
          35.3317413383028
        ]
      }
    },
    {
      "type": "Feature",
      "properties": {
        "norad_id": 30069,
        "name": "FENGYUN 1C DEB",
        "group": "fengyun-1c-debris",
        "lat": -64.55748033023744,
        "lon": 124.47789376367267,
        "alt_km": 919.2057006607856,
        "timestamp": "2025-12-07T11:27:50.275832+00:00",
        "meta_object_name": "FENGYUN 1C DEB",
        "meta_object_id": "1999-025PW",
        "meta_epoch": "2025-12-06T22:35:59.499168",
        "meta_mean_motion": 14.05217408,
        "meta_eccentricity": 0.00499777,
        "meta_inclination": 98.8007,
        "meta_ra_of_asc_node": 322.9617,
        "meta_arg_of_pericenter": 69.1131,
        "meta_mean_anomaly": 346.8257,
        "meta_ephemeris_type": 0,
        "meta_classification_type": "U",
        "meta_norad_cat_id": 30069,
        "meta_element_set_no": 999,
        "meta_rev_at_epoch": 96765,
        "meta_bstar": 0.000339987,
        "meta_mean_motion_dot": 5.13e-06,
        "meta_mean_motion_ddot": 0,
        "tle_line1": "1 30069U 99025PW  25340.94166087  .00000513  00000+0  33999-3 0  9992",
        "tle_line2": "2 30069  98.8007 322.9617 0049977  69.1131 346.8257 14.05217408967659"
      },
      "geometry": {
        "type": "Point",
        "coordinates": [
          124.47789376367267,
          -64.55748033023744
        ]
      }
    },
    {
      "type": "Feature",
      "properties": {
        "norad_id": 30070,
        "name": "FENGYUN 1C DEB",
        "group": "fengyun-1c-debris",
        "lat": -53.115754692813724,
        "lon": 52.713098952456036,
        "alt_km": 655.3585768831481,
        "timestamp": "2025-12-07T11:27:50.275842+00:00",
        "meta_object_name": "FENGYUN 1C DEB",
        "meta_object_id": "1999-025PX",
        "meta_epoch": "2025-12-06T22:56:05.701056",
        "meta_mean_motion": 14.09834482,
        "meta_eccentricity": 0.03284122,
        "meta_inclination": 98.2872,
        "meta_ra_of_asc_node": 41.0315,
        "meta_arg_of_pericenter": 335.6815,
        "meta_mean_anomaly": 204.1058,
        "meta_ephemeris_type": 0,
        "meta_classification_type": "U",
        "meta_norad_cat_id": 30070,
        "meta_element_set_no": 999,
        "meta_rev_at_epoch": 95797,
        "meta_bstar": 0.0023628506,
        "meta_mean_motion_dot": 6.829e-05,
        "meta_mean_motion_ddot": 0,
        "tle_line1": "1 30070U 99025PX  25340.95562154  .00006829  00000+0  23629-2 0  9994",
        "tle_line2": "2 30070  98.2872  41.0315 0328412 335.6815 204.1058 14.09834482957973"
      },
      "geometry": {
        "type": "Point",
        "coordinates": [
          52.713098952456036,
          -53.115754692813724
        ]
      }
    },
    {
      "type": "Feature",
      "properties": {
        "norad_id": 30071,
        "name": "FENGYUN 1C DEB",
        "group": "fengyun-1c-debris",
        "lat": 81.3264386729126,
        "lon": -11.987857754850191,
        "alt_km": 688.6048108576906,
        "timestamp": "2025-12-07T11:27:50.275853+00:00",
        "meta_object_name": "FENGYUN 1C DEB",
        "meta_object_id": "1999-025PY",
        "meta_epoch": "2025-12-06T19:05:26.846304",
        "meta_mean_motion": 14.51957157,
        "meta_eccentricity": 0.00398467,
        "meta_inclination": 98.6594,
        "meta_ra_of_asc_node": 79.875,
        "meta_arg_of_pericenter": 127.7774,
        "meta_mean_anomaly": 358.9417,
        "meta_ephemeris_type": 0,
        "meta_classification_type": "U",
        "meta_norad_cat_id": 30071,
        "meta_element_set_no": 999,
        "meta_rev_at_epoch": 98140,
        "meta_bstar": 0.0045315758,
        "meta_mean_motion_dot": 0.00018478,
        "meta_mean_motion_ddot": 0,
        "tle_line1": "1 30071U 99025PY  25340.79544961  .00018478  00000+0  45316-2 0  9993",
        "tle_line2": "2 30071  98.6594  79.8750 0039846 127.7774 358.9417 14.51957157981409"
      },
      "geometry": {
        "type": "Point",
        "coordinates": [
          -11.987857754850191,
          81.3264386729126
        ]
      }
    },
    {
      "type": "Feature",
      "properties": {
        "norad_id": 30072,
        "name": "FENGYUN 1C DEB",
        "group": "fengyun-1c-debris",
        "lat": -34.42603088946581,
        "lon": 135.74313770320893,
        "alt_km": 738.9010086488015,
        "timestamp": "2025-12-07T11:27:50.275863+00:00",
        "meta_object_name": "FENGYUN 1C DEB",
        "meta_object_id": "1999-025PZ",
        "meta_epoch": "2025-12-06T22:15:43.299936",
        "meta_mean_motion": 14.3760838,
        "meta_eccentricity": 0.00592705,
        "meta_inclination": 99.0773,
        "meta_ra_of_asc_node": 128.872,
        "meta_arg_of_pericenter": 289.1518,
        "meta_mean_anomaly": 70.3257,
        "meta_ephemeris_type": 0,
        "meta_classification_type": "U",
        "meta_norad_cat_id": 30072,
        "meta_element_set_no": 999,
        "meta_rev_at_epoch": 97087,
        "meta_bstar": 0.004959042,
        "meta_mean_motion_dot": 0.00015171,
        "meta_mean_motion_ddot": 0,
        "tle_line1": "1 30072U 99025PZ  25340.92758449  .00015171  00000+0  49590-2 0  9992",
        "tle_line2": "2 30072  99.0773 128.8720 0059270 289.1518  70.3257 14.37608380970879"
      },
      "geometry": {
        "type": "Point",
        "coordinates": [
          135.74313770320893,
          -34.42603088946581
        ]
      }
    }
  ]
}